NORAD_CAT_ID,OBJECT_NAME,OBJECT_TYPE,EPOCH,MEAN_MOTION,ECCENTRICITY,INCLINATION,RA_OF_ASC_NODE,ARG_OF_PERICENTER,MEAN_ANOMALY,BSTAR,MEAN_MOTION_DOT,MEAN_MOTION_DDOT,TLE_LINE0,TLE_LINE1,TLE_LINE2,SEMIMAJOR_AXIS,PERIOD,APOGEE,PERIGEE,DECAYED
50817.0,STARLINK-3341,PAYLOAD,2024-02-19 22:27:50,15.08831163,0.0001521,53.2168,290.409,85.0501,275.0665,2.8846e-05,1.71e-06,0.0,0 STARLINK-3341,1 50817U 22001Q   24050.93600458  .00000171  00000-0  28846-4 0  9993,2 50817  53.2168 290.4090 0001521  85.0501 275.0665 15.08831163117376,6917.907,95.438,540.825,538.72,0.0
50817.0,STARLINK-3341,PAYLOAD,2024-02-20 19:07:50,15.08866646,0.000155,53.218,286.5441,84.7922,275.3247,0.00095199,0.00014906,0.0,0 STARLINK-3341,1 50817U 22001Q   24051.79711570  .00014906  00000-0  95199-3 0  9991,2 50817  53.2180 286.5441 0001550  84.7922 275.3247 15.08866646118757,6917.799,95.436,540.736,538.592,0.0
50817.0,STARLINK-3341,PAYLOAD,2024-02-20 20:43:13,15.08872726,0.0001583,53.2179,286.2467,83.9954,276.1218,0.0011698,0.00018395,0.0,0 STARLINK-3341,1 50817U 22001Q   24051.86335450  .00018395  00000-0  11698-2 0  9995,2 50817  53.2179 286.2467 0001583  83.9954 276.1218 15.08872726117518,6917.78,95.435,540.74,538.55,0.0
50817.0,STARLINK-3341,PAYLOAD,2024-02-21 18:58:37,15.08838312,0.00012,53.2162,282.0817,78.0623,282.0504,-0.00018532,-3.236e-05,0.0,0 STARLINK-3341,1 50817U 22001Q   24052.79071244 -.00003236  00000-0 -18532-3 0  9991,2 50817  53.2162 282.0817 0001200  78.0623 282.0504 15.08838312118908,6917.886,95.438,540.581,538.92,0.0
50817.0,STARLINK-3341,PAYLOAD,2024-02-21 20:34:00,15.0882582,0.0001112,53.216,281.7847,84.0447,276.0672,0.0012544,0.00019724,0.0,0 STARLINK-3341,1 50817U 22001Q   24052.85695551  .00019724  00000-0  12544-2 0  9994,2 50817  53.2160 281.7847 0001112  84.0447 276.0672 15.08825820117669,6917.924,95.438,540.558,539.019,0.0
50817.0,STARLINK-3341,PAYLOAD,2024-02-22 07:41:43,15.08836104,0.0001194,53.2161,279.7,79.6385,280.4741,0.0007467,0.00011614,0.0,0 STARLINK-3341,1 50817U 22001Q   24053.32063855  .00011614  00000-0  74670-3 0  9992,2 50817  53.2161 279.7000 0001194  79.6385 280.4741 15.08836104117730,6917.892,95.438,540.583,538.931,0.0
50817.0,STARLINK-3341,PAYLOAD,2024-02-22 22:00:11,15.08836984,0.0001214,53.2152,277.0266,100.1889,259.9241,0.00045346,6.936e-05,0.0,0 STARLINK-3341,1 50817U 22001Q   24053.91680150  .00006936  00000-0  45346-3 0  9999,2 50817  53.2152 277.0266 0001214 100.1889 259.9241 15.08836984117829,6917.89,95.438,540.594,538.915,0.0
50817.0,STARLINK-3341,PAYLOAD,2024-02-23 13:54:03,15.08841434,0.0001176,53.2152,274.0542,97.7265,262.3861,0.00034634,5.229e-05,0.0,0 STARLINK-3341,1 50817U 22001Q   24054.57920265  .00005229  00000-0  34634-3 0  9998,2 50817  53.2152 274.0542 0001176  97.7265 262.3861 15.08841434117922,6917.876,95.437,540.555,538.927,0.0
50817.0,STARLINK-3341,PAYLOAD,2024-02-23 20:15:36,15.08828975,0.0001254,53.2152,272.8639,97.8601,262.2534,0.00019267,2.779e-05,0.0,0 STARLINK-3341,1 50817U 22001Q   24054.84416960  .00002779  00000-0  19267-3 0  9992,2 50817  53.2152 272.8639 0001254  97.8601 262.2534 15.08828975119212,6917.914,95.438,540.647,538.912,0.0
50817.0,STARLINK-3341,PAYLOAD,2024-02-23 21:50:59,15.08832068,0.0001258,53.2152,272.5668,95.4385,264.675,0.00013094,1.796e-05,0.0,0 STARLINK-3341,1 50817U 22001Q   24054.91040814  .00001796  00000-0  13094-3 0  9991,2 50817  53.2152 272.5668 0001258  95.4385 264.6750 15.08832068117973,6917.905,95.438,540.64,538.899,0.0
50817.0,STARLINK-3341,PAYLOAD,2024-02-24 07:23:17,15.08839602,0.0001265,53.215,270.7823,91.5197,268.594,0.0002241,3.28e-05,0.0,0 STARLINK-3341,1 50817U 22001Q   24055.30784707  .00003280  00000-0  22410-3 0  9993,2 50817  53.2150 270.7823 0001265  91.5197 268.5940 15.08839602119281,6917.882,95.438,540.622,538.871,0.0
50817.0,STARLINK-3341,PAYLOAD,2024-02-25 13:35:37,15.08849663,0.0001315,53.2153,265.1329,90.4798,269.6345,0.00030767,4.613e-05,0.0,0 STARLINK-3341,1 50817U 22001Q   24056.56640268  .00004613  00000-0  30767-3 0  9990,2 50817  53.2153 265.1329 0001315  90.4798 269.6345 15.08849663119474,6917.851,95.437,540.626,538.806,0.0
50817.0,STARLINK-3341,PAYLOAD,2024-02-25 21:32:32,15.08849942,0.0001196,53.2151,263.6457,92.4674,267.6455,0.0002453,3.619e-05,0.0,0 STARLINK-3341,1 50817U 22001Q   24056.89760094  .00003619  00000-0  24530-3 0  9992,2 50817  53.2151 263.6457 0001196  92.4674 267.6455 15.08849942118276,6917.85,95.437,540.542,538.888,0.0
50817.0,STARLINK-3341,PAYLOAD,2024-02-26 19:47:57,15.08835417,0.0001311,53.2168,259.4838,84.5874,275.5268,0.00010274,1.347e-05,0.0,0 STARLINK-3341,1 50817U 22001Q   24057.82496909  .00001347  00000-0  10274-3 0  9993,2 50817  53.2168 259.4838 0001311  84.5874 275.5268 15.08835417119669,6917.894,95.438,540.666,538.852,0.0
50817.0,STARLINK-3341,PAYLOAD,2024-02-27 13:17:12,15.08835268,0.0001097,53.2166,256.2091,92.0974,268.0144,0.00015971,2.255e-05,0.0,0 STARLINK-3341,1 50817U 22001Q   24058.55361219  .00002255  00000-0  15971-3 0  9997,2 50817  53.2166 256.2091 0001097  92.0974 268.0144 15.08835268118527,6917.895,95.438,540.519,539.001,0.0
50817.0,STARLINK-3341,PAYLOAD,2024-02-27 19:38:44,15.08840268,0.0001134,53.2163,255.0206,87.8768,272.2354,0.00019554,2.826e-05,0.0,0 STARLINK-3341,1 50817U 22001Q   24058.81857058  .00002826  00000-0  19554-3 0  9992,2 50817  53.2163 255.0206 0001134  87.8768 272.2354 15.08840268118564,6917.88,95.438,540.529,538.96,0.0
50817.0,STARLINK-3341,PAYLOAD,2024-02-27 22:49:30,15.08843852,0.0001309,53.216,254.4249,95.6928,264.4213,0.00018188,2.608e-05,0.0,0 STARLINK-3341,1 50817U 22001Q   24058.95104879  .00002608  00000-0  18188-3 0  9993,2 50817  53.2160 254.4249 0001309  95.6928 264.4213 15.08843852119830,6917.869,95.437,540.639,538.828,0.0
50817.0,STARLINK-3341,PAYLOAD,2024-02-28 13:07:59,15.08840592,0.000129,53.2153,251.7481,86.7934,273.3205,0.000229,3.359e-05,0.0,0 STARLINK-3341,1 50817U 22001Q   24059.54721144  .00003359  00000-0  22900-3 0  9990,2 50817  53.2153 251.7481 0001290  86.7934 273.3205 15.08840592119925,6917.879,95.438,540.636,538.851,0.0
50817.0,STARLINK-3341,PAYLOAD,2024-02-28 19:29:31,15.08845766,0.0001211,53.2155,250.56,83.7504,276.3626,0.0002739,4.075e-05,0.0,0 STARLINK-3341,1 50817U 22001Q   24059.81216926  .00004075  00000-0  27390-3 0  9991,2 50817  53.2155 250.5600 0001211  83.7504 276.3626 15.08845766118714,6917.863,95.437,540.566,538.89,0.0
50817.0,STARLINK-3341,PAYLOAD,2024-02-29 12:58:46,15.08839185,0.0001239,53.2156,247.2889,82.1703,277.943,4.908e-05,4.93e-06,0.0,0 STARLINK-3341,1 50817U 22001Q   24060.54081127  .00000493  00000-0  49080-4 0  9997,2 50817  53.2156 247.2889 0001239  82.1703 277.9430 15.08839185118821,6917.883,95.438,540.605,538.891,0.0
50817.0,STARLINK-3341,PAYLOAD,2024-02-29 19:20:18,15.08841173,0.0001197,53.2156,246.0997,82.9592,277.1537,7.1787e-05,8.55e-06,0.0,0 STARLINK-3341,1 50817U 22001Q   24060.80577050  .00000855  00000-0  71787-4 0  9992,2 50817  53.2156 246.0997 0001197  82.9592 277.1537 15.08841173120110,6917.877,95.437,540.57,538.914,0.0
50817.0,STARLINK-3341,PAYLOAD,2024-03-01 14:24:56,15.08841054,0.0001156,53.2166,242.5309,80.6011,279.5112,4.0208e-05,3.52e-06,0.0,0 STARLINK-3341,1 50817U 22001Q   24061.60065371  .00000352  00000-0  40208-4 0  9995,2 50817  53.2166 242.5309 0001156  80.6011 279.5112 15.08841054118980,6917.877,95.437,540.542,538.942,0.0
50817.0,STARLINK-3341,PAYLOAD,2024-03-01 19:11:05,15.08844087,0.0001192,53.2164,241.6395,88.1716,271.9413,6.4909e-05,7.45e-06,0.0,0 STARLINK-3341,1 50817U 22001Q   24061.79937074  .00000745  00000-0  64909-4 0  9993,2 50817  53.2164 241.6395 0001192  88.1716 271.9413 15.08844087119012,6917.868,95.437,540.558,538.908,0.0
50817.0,STARLINK-3341,PAYLOAD,2024-03-02 19:01:52,15.08845871,0.0001114,53.2161,237.1794,91.531,268.5809,0.00014051,1.949e-05,0.0,0 STARLINK-3341,1 50817U 22001Q   24062.79296837  .00001949  00000-0  14051-3 0  9998,2 50817  53.2161 237.1794 0001114  91.5310 268.5809 15.08845871120413,6917.862,95.437,540.498,538.957,0.0
50817.0,STARLINK-3341,PAYLOAD,2024-03-03 18:52:38,15.08867236,0.0001216,53.217,232.719,97.4026,262.7104,-0.00021051,-3.639e-05,0.0,0 STARLINK-3341,1 50817U 22001Q   24063.78656062 -.00003639  00000-0 -21051-3 0  9996,2 50817  53.2170 232.7190 0001216  97.4026 262.7104 15.08867236119316,6917.797,95.436,540.503,538.821,0.0
50817.0,STARLINK-3341,PAYLOAD,2024-03-04 04:24:57,15.08850995,0.0001254,53.2172,230.9343,81.5053,278.6081,0.0001462,2.04e-05,0.0,0 STARLINK-3341,1 50817U 22001Q   24064.18400378  .00002040  00000-0  14620-3 0  9995,2 50817  53.2172 230.9343 0001254  81.5053 278.6081 15.08850995120624,6917.847,95.437,540.579,538.844,0.0
50817.0,STARLINK-3341,PAYLOAD,2024-03-04 17:08:03,15.08846716,0.000134,53.2167,228.5535,89.5288,270.5858,3.716e-05,3.04e-06,0.0,0 STARLINK-3341,1 50817U 22001Q   24064.71392520  .00000304  00000-0  37160-4 0  9999,2 50817  53.2167 228.5535 0001340  89.5288 270.5858 15.08846716120706,6917.86,95.437,540.652,538.798,0.0
50817.0,STARLINK-3341,PAYLOAD,2024-03-05 13:48:04,15.08839866,0.0001252,53.2168,224.6864,94.1486,265.9649,-1.2235e-05,-4.83e-06,0.0,0 STARLINK-3341,1 50817U 22001Q   24065.57505105 -.00000483  00000-0 -12235-4 0  9995,2 50817  53.2168 224.6864 0001252  94.1486 265.9649 15.08839866119581,6917.881,95.438,540.612,538.88,0.0
50817.0,STARLINK-3341,PAYLOAD,2024-03-05 20:09:37,15.08834587,0.0001207,53.2168,223.4973,94.1223,265.9908,-6.9273e-05,-1.39e-05,0.0,0 STARLINK-3341,1 50817U 22001Q   24065.84001552 -.00001390  00000-0 -69273-4 0  9994,2 50817  53.2168 223.4973 0001207  94.1223 265.9908 15.08834587120875,6917.897,95.438,540.597,538.927,0.0
50817.0,STARLINK-3341,PAYLOAD,2024-03-06 04:06:33,15.08826624,0.0001388,53.2168,222.0107,99.9354,260.1795,-0.00012333,-2.249e-05,0.0,0 STARLINK-3341,1 50817U 22001Q   24066.17122376 -.00002249  00000-0 -12333-3 0  9997,2 50817  53.2168 222.0107 0001388  99.9354 260.1795 15.08826624120927,6917.921,95.438,540.746,538.826,0.0
